#aV2019  8 27  0  0  0.00000000     288 DD+AD WGS84 FIT  NGA
## 2068 172800.00000000   300.00000000 58722 0.0000000000000
+   31     1  2  3  5  6  7  8  9 10 11 12 13 14 15 16 17 18
+         19 20 21 22 23 24 25 26 27 28 29 30 31 32  0  0  0
+          0  0  0  0  0  0  0  0  0  0  0  0  0  0  0  0  0
+          0  0  0  0  0  0  0  0  0  0  0  0  0  0  0  0  0
+          0  0  0  0  0  0  0  0  0  0  0  0  0  0  0  0  0
++         2  2  2  2  2  2  2  2  2  2  2  2  2  2  2  2  2
++         2  2  2  2  2  2  2  2  2  2  2  2  2  2  0  0  0
++         0  0  0  0  0  0  0  0  0  0  0  0  0  0  0  0  0
++         0  0  0  0  0  0  0  0  0  0  0  0  0  0  0  0  0
++         0  0  0  0  0  0  0  0  0  0  0  0  0  0  0  0  0
%c cc cc ccc ccc cccc cccc cccc cccc ccccc ccccc ccccc ccccc
%c cc cc ccc ccc cccc cccc cccc cccc ccccc ccccc ccccc ccccc
%f  0.0000000  0.000000000  0.00000000000  0.000000000000000
%f  0.0000000  0.000000000  0.00000000000  0.000000000000000
%i    0    0    0    0      0      0      0      0         0
%i    0    0    0    0      0      0      0      0         0
/*      NGA, ST. LOUIS,MO.                                  
/*   EPHEMERIS COMPUTED FROM 2 DAYS OF DATA                 
/*   EPOCHA v5 SMOOTHER                                     
/*   G1762 IERS2010 SATAF SATAPC                            
*  2019  8 27 20 50  0.00000000
P  1 -10527.203547  20323.594540 -13395.588615   -109.913094                    
V  1 -14250.745751   9074.698992  25655.773813     -0.119033                    
P  2  21119.082956 -14894.027747  -5197.609734   -292.279935                    
V  2  -3248.578561   7345.559669 -30795.167001     -0.082697                    
P  3   -442.145482  15730.657072 -21461.108645     -5.240817                    
V  3 -25567.082400  -9003.739474  -5998.930609     -0.034746                    
P  5  20452.826465  -5198.013806  16118.279654     -0.935352                    
V  5  18915.427980   8543.402316 -20871.342634     -0.003054                    
P  6  19827.007313  -1004.257267 -17618.888324    -38.437043                    
V  6 -16323.777179  15405.907663 -19174.991437     -0.120860                    
P  7   4689.108084  15533.919937  21225.434493    -94.058967                    
V  7 -21130.214674  15889.905798  -7530.633701     -0.079074                    
P  8  -6194.782608  21253.920641  14550.142405     -4.314537                    
V  8  -5343.943222 -17809.030811  23990.715755     -0.014310                    
P  9   8090.805975  24821.781398   4818.748835    -16.761436                    
V  9  -1837.541735   6627.252765 -30785.137950     -0.091723                    
P 10 -23807.433001 -11477.344734   3667.778492    -30.527621                    
V 10   5135.896897   -774.188869  31237.542240     -0.146221                    
P 11  -7398.366536  25304.816550  -4838.270923   -523.547255                    
V 11  -5901.015034   3365.138562  29602.177335      0.104094                    
P 12   5042.813149 -14001.875308 -22216.736301    209.872153                    
V 12  25191.788258  11335.137802  -1282.812605     -0.037502                    
P 13  12883.286748 -12405.281655  19504.396930    -47.477799                    
V 13   2337.745076  24926.907839  14288.125492      0.019827                    
P 14 -15197.901942  -3473.293790 -21199.276188    -64.397796                    
V 14  -2017.173369 -27595.513446   5699.000921      0.019480                    
P 15   4422.053243 -22103.229391  13458.549877   -291.164463                    
V 15   7870.462723  16291.390053  24074.429395      0.026677                    
P 16 -21301.899745   1628.308321  15865.366343    -68.786575                    
V 16 -17783.069050  -9826.576907 -22181.183333     -0.033970                    
P 17  13778.650207  12754.142599 -18407.485569    114.602911                    
V 17   1573.497167  24125.171359  17423.990556      0.069597                    
P 18 -16194.845053  20331.628544  -5665.305578     81.208492                    
V 18  -6826.279180   2300.524432  30605.606573      0.029512                    
P 19  14823.840520   5781.431872 -21562.016755   -275.200373                    
V 19   1304.578906  26590.277244   8177.412369      0.050866                    
P 20 -18695.830024 -14050.439664  12642.754211    526.641971                    
V 20  16460.388679    881.896841  24941.906544      0.001410                    
P 21  -9571.122660 -12697.947203  22077.888810   -128.972029                    
V 21  19180.527202 -17859.005259  -1850.027435      0.065890                    
P 22  -8609.930053  13727.040381 -20812.783058   -748.632317                    
V 22 -25830.317786  -8162.542478   5338.231496     -0.041565                    
P 23     20.194129  25431.736909  -6579.088218   -170.002714                    
V 23  -5206.869760  -8076.071778 -30083.671495      0.019965                    
P 24  11667.975569 -21292.563973 -10517.415326     -1.361677                    
V 24  12008.307891  -6579.606770  27391.352789     -0.004893                    
P 25 -10211.512145 -17005.449466 -17996.046007     -9.550156                    
V 25  21341.608860   6625.883280 -18345.258328     -0.018449                    
P 26 -25496.244397  -3406.639695   6972.431782     25.204252                    
V 26  -7461.838515  -5528.707861 -29732.201495      0.089257                    
P 27 -12899.368829   9086.875033  21198.583645    -37.063999                    
V 27  -5354.730136 -26668.990884   8419.468974     -0.117696                    
P 28  22438.434737  13691.868585   3991.408263    763.745499                    
V 28  -4828.940903     87.533656  31745.480037     -0.008765                    
P 29  -4283.563842 -26089.593277   2377.733527    113.623720                    
V 29   1706.383590  -3250.409351 -32126.164182     -0.100557                    
P 30  14794.807064   7754.073161  20720.391981    -28.442582                    
V 30 -20393.499242  16585.068694   8171.104416     -0.078516                    
P 31 -21220.564821   2264.200392 -16094.954802     14.416686                    
V 31  14927.737939 -13790.775038 -21189.188841     -0.025878                    
P 32 -15123.021468 -12221.638294 -18083.745721     35.272047                    
V 32  -2494.263611 -22977.765420  17431.428660      0.141469                    
EOF
